ONEWEB-0301             
1 49090U 21075R   26023.46630100 -.00000349  00000+0 -10064-2 0  9990
2 49090  87.8934  19.3844 0001860  76.4901 283.6435 13.12440883215580
ONEWEB-0302             
1 49091U 21075S   26023.45276279  .00000079  00000+0  18520-3 0  9997
2 49091  87.8934  19.3958 0001767  99.4611 260.6718 13.12442914215560
ONEWEB-0304             
1 49092U 21075T   26023.50994423  .00000053  00000+0  10204-3 0  9995
2 49092  87.9093  34.6170 0001956  93.6712 266.4643 13.17649322214525
ONEWEB-0305             
1 49093U 21075U   26023.50319670  .00000077  00000+0  16407-3 0  9998
2 49093  87.9096  34.5964 0002253  94.1642 265.9747 13.17650578214555
ONEWEB-0308             
1 49094U 21075V   26023.52222062  .00000304  00000+0  81025-3 0  9990
2 49094  87.8936  19.3751 0001757  87.3413 272.7916 13.12440421215588
ONEWEB-0309             
1 49095U 21075W   26023.50655999  .00000014  00000+0  37959-5 0  9995
2 49095  87.9096  34.6108 0001753 104.8703 255.2623 13.17651050214527
ONEWEB-0310             
1 49096U 21075X   26023.46122060 -.00000224  00000+0 -65701-3 0  9998
2 49096  87.8927  19.4209 0001754  88.2638 271.8691 13.12440647216205
ONEWEB-0311             
1 49097U 21075Y   26023.51332172  .00000043  00000+0  77803-4 0  9996
2 49097  87.9091  34.6044 0002196  90.5881 269.5502 13.17648884214573
ONEWEB-0312             
1 49098U 21075Z   26023.45256051  .00000013  00000+0  14688-5 0  9991
2 49098  87.9083  34.6387 0002074  99.7432 260.3934 13.17650765214549
ONEWEB-0313             
1 49099U 21075AA  26023.45748962  .00000071  00000+0  15051-3 0  9996
2 49099  87.9082  34.6444 0001969  91.8315 268.3042 13.17650436214530
ONEWEB-0314             
1 49100U 21075AB  26023.49980991  .00000059  00000+0  11966-3 0  9990
2 49100  87.9096  34.5941 0002153  99.4924 260.6451 13.17651325214510
ONEWEB-0315             
1 49101U 21075AC  26023.51037552  .00000461  00000+0  12463-2 0  9999
2 49101  87.8937  19.3633 0002148  83.7185 276.4188 13.12443745216190
ONEWEB-0316             
1 49102U 21075AD  26023.46240080 -.00000045  00000+0 -14755-3 0  9993
2 49102  87.9191   4.1984 0001945  84.1732 275.9622 13.18685580218136
ONEWEB-0317             
1 49103U 21075AE  26023.51374527  .00000454  00000+0  12253-2 0  9996
2 49103  87.8937  19.3845 0001119 104.4411 255.6842 13.12443944216217
ONEWEB-0318             
1 49104U 21075AF  26023.45909991  .00000023  00000+0  24541-4 0  9996
2 49104  87.9196   4.1875 0002128  84.6030 275.5345 13.18686023218098
ONEWEB-0319             
1 49105U 21075AG  26023.43906729  .00000069  00000+0  14365-3 0  9993
2 49105  87.9085  34.6357 0002366  84.4673 275.6728 13.17648966214549
ONEWEB-0323             
1 49106U 21075AH  26023.49511577  .00000164  00000+0  42164-3 0  9997
2 49106  87.8938  19.3707 0002463  88.8860 271.2551 13.12445315215577
