[{"OBJECT_NAME":"ONEWEB-0301","OBJECT_ID":"2021-075R","EPOCH":"2026-01-23T11:11:28.406400","MEAN_MOTION":13.12440883,"ECCENTRICITY":0.000186,"INCLINATION":87.8934,"RA_OF_ASC_NODE":19.3844,"ARG_OF_PERICENTER":76.4901,"MEAN_ANOMALY":283.6435,"EPHEMERIS_TYPE":0,"CLASSIFICATION_TYPE":"U","NORAD_CAT_ID":49090,"ELEMENT_SET_NO":999,"REV_AT_EPOCH":21558,"BSTAR":-0.0010064229,"MEAN_MOTION_DOT":-3.49e-6,"MEAN_MOTION_DDOT":0},{"OBJECT_NAME":"ONEWEB-0302","OBJECT_ID":"2021-075S","EPOCH":"2026-01-23T10:51:58.705056","MEAN_MOTION":13.12442914,"ECCENTRICITY":0.00017677,"INCLINATION":87.8934,"RA_OF_ASC_NODE":19.3958,"ARG_OF_PERICENTER":99.4611,"MEAN_ANOMALY":260.6718,"EPHEMERIS_TYPE":0,"CLASSIFICATION_TYPE":"U","NORAD_CAT_ID":49091,"ELEMENT_SET_NO":999,"REV_AT_EPOCH":21556,"BSTAR":0.00018519997,"MEAN_MOTION_DOT":7.9e-7,"MEAN_MOTION_DDOT":0},{"OBJECT_NAME":"ONEWEB-0304","OBJECT_ID":"2021-075T","EPOCH":"2026-01-23T12:14:19.181472","MEAN_MOTION":13.17649322,"ECCENTRICITY":0.0001956,"INCLINATION":87.9093,"RA_OF_ASC_NODE":34.617,"ARG_OF_PERICENTER":93.6712,"MEAN_ANOMALY":266.4643,"EPHEMERIS_TYPE":0,"CLASSIFICATION_TYPE":"U","NORAD_CAT_ID":49092,"ELEMENT_SET_NO":999,"REV_AT_EPOCH":21452,"BSTAR":0.00010204082,"MEAN_MOTION_DOT":5.3e-7,"MEAN_MOTION_DDOT":0},{"OBJECT_NAME":"ONEWEB-0305","OBJECT_ID":"2021-075U","EPOCH":"2026-01-23T12:04:36.194880","MEAN_MOTION":13.17650578,"ECCENTRICITY":0.00022538,"INCLINATION":87.9096,"RA_OF_ASC_NODE":34.5964,"ARG_OF_PERICENTER":94.1642,"MEAN_ANOMALY":265.9747,"EPHEMERIS_TYPE":0,"CLASSIFICATION_TYPE":"U","NORAD_CAT_ID":49093,"ELEMENT_SET_NO":999,"REV_AT_EPOCH":21455,"BSTAR":0.00016407128,"MEAN_MOTION_DOT":7.7e-7,"MEAN_MOTION_DDOT":0},{"OBJECT_NAME":"ONEWEB-0308","OBJECT_ID":"2021-075V","EPOCH":"2026-01-23T12:31:59.861568","MEAN_MOTION":13.12440421,"ECCENTRICITY":0.00017578,"INCLINATION":87.8936,"RA_OF_ASC_NODE":19.3751,"ARG_OF_PERICENTER":87.3413,"MEAN_ANOMALY":272.7916,"EPHEMERIS_TYPE":0,"CLASSIFICATION_TYPE":"U","NORAD_CAT_ID":49094,"ELEMENT_SET_NO":999,"REV_AT_EPOCH":21558,"BSTAR":0.00081024606,"MEAN_MOTION_DOT":3.04e-6,"MEAN_MOTION_DDOT":0},{"OBJECT_NAME":"ONEWEB-0309","OBJECT_ID":"2021-075W","EPOCH":"2026-01-23T12:09:26.783136","MEAN_MOTION":13.1765105,"ECCENTRICITY":0.00017534,"INCLINATION":87.9096,"RA_OF_ASC_NODE":34.6108,"ARG_OF_PERICENTER":104.8703,"MEAN_ANOMALY":255.2623,"EPHEMERIS_TYPE":0,"CLASSIFICATION_TYPE":"U","NORAD_CAT_ID":49095,"ELEMENT_SET_NO":999,"REV_AT_EPOCH":21452,"BSTAR":3.795939e-6,"MEAN_MOTION_DOT":1.4e-7,"MEAN_MOTION_DDOT":0},{"OBJECT_NAME":"ONEWEB-0310","OBJECT_ID":"2021-075X","EPOCH":"2026-01-23T11:04:09.459840","MEAN_MOTION":13.12440647,"ECCENTRICITY":0.00017542,"INCLINATION":87.8927,"RA_OF_ASC_NODE":19.4209,"ARG_OF_PERICENTER":88.2638,"MEAN_ANOMALY":271.8691,"EPHEMERIS_TYPE":0,"CLASSIFICATION_TYPE":"U","NORAD_CAT_ID":49096,"ELEMENT_SET_NO":999,"REV_AT_EPOCH":21620,"BSTAR":-0.0006570124,"MEAN_MOTION_DOT":-2.24e-6,"MEAN_MOTION_DDOT":0},{"OBJECT_NAME":"ONEWEB-0311","OBJECT_ID":"2021-075Y","EPOCH":"2026-01-23T12:19:10.996608","MEAN_MOTION":13.17648884,"ECCENTRICITY":0.00021966,"INCLINATION":87.9091,"RA_OF_ASC_NODE":34.6044,"ARG_OF_PERICENTER":90.5881,"MEAN_ANOMALY":269.5502,"EPHEMERIS_TYPE":0,"CLASSIFICATION_TYPE":"U","NORAD_CAT_ID":49097,"ELEMENT_SET_NO":999,"REV_AT_EPOCH":21457,"BSTAR":7.7802678e-5,"MEAN_MOTION_DOT":4.3e-7,"MEAN_MOTION_DDOT":0},{"OBJECT_NAME":"ONEWEB-0312","OBJECT_ID":"2021-075Z","EPOCH":"2026-01-23T10:51:41.228064","MEAN_MOTION":13.17650765,"ECCENTRICITY":0.00020741,"INCLINATION":87.9083,"RA_OF_ASC_NODE":34.6387,"ARG_OF_PERICENTER":99.7432,"MEAN_ANOMALY":260.3934,"EPHEMERIS_TYPE":0,"CLASSIFICATION_TYPE":"U","NORAD_CAT_ID":49098,"ELEMENT_SET_NO":999,"REV_AT_EPOCH":21454,"BSTAR":1.468808e-6,"MEAN_MOTION_DOT":1.3e-7,"MEAN_MOTION_DDOT":0},{"OBJECT_NAME":"ONEWEB-0313","OBJECT_ID":"2021-075AA","EPOCH":"2026-01-23T10:58:47.103168","MEAN_MOTION":13.17650436,"ECCENTRICITY":0.00019699,"INCLINATION":87.9082,"RA_OF_ASC_NODE":34.6444,"ARG_OF_PERICENTER":91.8315,"MEAN_ANOMALY":268.3042,"EPHEMERIS_TYPE":0,"CLASSIFICATION_TYPE":"U","NORAD_CAT_ID":49099,"ELEMENT_SET_NO":999,"REV_AT_EPOCH":21453,"BSTAR":0.00015051355,"MEAN_MOTION_DOT":7.1e-7,"MEAN_MOTION_DDOT":0},{"OBJECT_NAME":"ONEWEB-0314","OBJECT_ID":"2021-075AB","EPOCH":"2026-01-23T11:59:43.576224","MEAN_MOTION":13.17651325,"ECCENTRICITY":0.00021533,"INCLINATION":87.9096,"RA_OF_ASC_NODE":34.5941,"ARG_OF_PERICENTER":99.4924,"MEAN_ANOMALY":260.6451,"EPHEMERIS_TYPE":0,"CLASSIFICATION_TYPE":"U","NORAD_CAT_ID":49100,"ELEMENT_SET_NO":999,"REV_AT_EPOCH":21451,"BSTAR":0.00011965531,"MEAN_MOTION_DOT":5.9e-7,"MEAN_MOTION_DDOT":0},{"OBJECT_NAME":"ONEWEB-0315","OBJECT_ID":"2021-075AC","EPOCH":"2026-01-23T12:14:56.444928","MEAN_MOTION":13.12443745,"ECCENTRICITY":0.00021487,"INCLINATION":87.8937,"RA_OF_ASC_NODE":19.3633,"ARG_OF_PERICENTER":83.7185,"MEAN_ANOMALY":276.4188,"EPHEMERIS_TYPE":0,"CLASSIFICATION_TYPE":"U","NORAD_CAT_ID":49101,"ELEMENT_SET_NO":999,"REV_AT_EPOCH":21619,"BSTAR":0.0012463295,"MEAN_MOTION_DOT":4.61e-6,"MEAN_MOTION_DDOT":0},{"OBJECT_NAME":"ONEWEB-0316","OBJECT_ID":"2021-075AD","EPOCH":"2026-01-23T11:05:51.429120","MEAN_MOTION":13.1868558,"ECCENTRICITY":0.00019454,"INCLINATION":87.9191,"RA_OF_ASC_NODE":4.1984,"ARG_OF_PERICENTER":84.1732,"MEAN_ANOMALY":275.9622,"EPHEMERIS_TYPE":0,"CLASSIFICATION_TYPE":"U","NORAD_CAT_ID":49102,"ELEMENT_SET_NO":999,"REV_AT_EPOCH":21813,"BSTAR":-0.0001475548,"MEAN_MOTION_DOT":-4.5e-7,"MEAN_MOTION_DDOT":0},{"OBJECT_NAME":"ONEWEB-0317","OBJECT_ID":"2021-075AE","EPOCH":"2026-01-23T12:19:47.591328","MEAN_MOTION":13.12443944,"ECCENTRICITY":0.00011195,"INCLINATION":87.8937,"RA_OF_ASC_NODE":19.3845,"ARG_OF_PERICENTER":104.4411,"MEAN_ANOMALY":255.6842,"EPHEMERIS_TYPE":0,"CLASSIFICATION_TYPE":"U","NORAD_CAT_ID":49103,"ELEMENT_SET_NO":999,"REV_AT_EPOCH":21621,"BSTAR":0.0012252748,"MEAN_MOTION_DOT":4.54e-6,"MEAN_MOTION_DDOT":0},{"OBJECT_NAME":"ONEWEB-0318","OBJECT_ID":"2021-075AF","EPOCH":"2026-01-23T11:01:06.232224","MEAN_MOTION":13.18686023,"ECCENTRICITY":0.0002128,"INCLINATION":87.9196,"RA_OF_ASC_NODE":4.1875,"ARG_OF_PERICENTER":84.603,"MEAN_ANOMALY":275.5345,"EPHEMERIS_TYPE":0,"CLASSIFICATION_TYPE":"U","NORAD_CAT_ID":49104,"ELEMENT_SET_NO":999,"REV_AT_EPOCH":21809,"BSTAR":2.4541159e-5,"MEAN_MOTION_DOT":2.3e-7,"MEAN_MOTION_DDOT":0},{"OBJECT_NAME":"ONEWEB-0319","OBJECT_ID":"2021-075AG","EPOCH":"2026-01-23T10:32:15.413856","MEAN_MOTION":13.17648966,"ECCENTRICITY":0.00023667,"INCLINATION":87.9085,"RA_OF_ASC_NODE":34.6357,"ARG_OF_PERICENTER":84.4673,"MEAN_ANOMALY":275.6728,"EPHEMERIS_TYPE":0,"CLASSIFICATION_TYPE":"U","NORAD_CAT_ID":49105,"ELEMENT_SET_NO":999,"REV_AT_EPOCH":21454,"BSTAR":0.00014364649,"MEAN_MOTION_DOT":6.9e-7,"MEAN_MOTION_DDOT":0},{"OBJECT_NAME":"ONEWEB-0323","OBJECT_ID":"2021-075AH","EPOCH":"2026-01-23T11:52:58.002528","MEAN_MOTION":13.12445315,"ECCENTRICITY":0.00024639,"INCLINATION":87.8938,"RA_OF_ASC_NODE":19.3707,"ARG_OF_PERICENTER":88.886,"MEAN_ANOMALY":271.2551,"EPHEMERIS_TYPE":0,"CLASSIFICATION_TYPE":"U","NORAD_CAT_ID":49106,"ELEMENT_SET_NO":999,"REV_AT_EPOCH":21557,"BSTAR":0.00042164144,"MEAN_MOTION_DOT":1.64e-6,"MEAN_MOTION_DDOT":0}]
